{"type": "FeatureCollection", "features": [ {"type": "Feature", "properties": {"norad_id": 37834, "name": "INTELSAT 18 (IS-18)", "group": "intelsat", "lat": -0.006153210273993343, "lon": 155.50055857546835, "alt_km": 35789.508882683025, "timestamp": "2025-12-14T16:47:40.350825+00:00", "meta": {"OBJECT_NAME": "INTELSAT 18 (IS-18)", "OBJECT_ID": "2011-056A", "EPOCH": "2025-12-13T19:26:31.329312", "MEAN_MOTION": 1.00272255, "ECCENTRICITY": 0.00018184, "INCLINATION": 0.0174, "RA_OF_ASC_NODE": 321.8802, "ARG_OF_PERICENTER": 311.8694, "MEAN_ANOMALY": 280.6127, "EPHEMERIS_TYPE": 0, "CLASSIFICATION_TYPE": "U", "NORAD_CAT_ID": 37834, "ELEMENT_SET_NO": 999, "REV_AT_EPOCH": 5195, "BSTAR": 0, "MEAN_MOTION_DOT": 6.9e-07, "MEAN_MOTION_DDOT": 0}, "tle": {"line1": "1 37834U 11056A   25347.81008483  .00000069  00000+0  00000+0 0  9994", "line2": "2 37834   0.0174 321.8802 0001818 311.8694 280.6127  1.00272255 51953"}}, "geometry": {"type": "Point", "coordinates": [155.50055857546835, -0.006153210273993343]}}, {"type": "Feature", "properties": {"norad_id": 38098, "name": "INTELSAT 22 (IS-22)", "group": "intelsat", "lat": 0.018369121150801693, "lon": 47.6522247249555, "alt_km": 35791.87653576302, "timestamp": "2025-12-14T16:47:40.350838+00:00", "meta": {"OBJECT_NAME": "INTELSAT 22 (IS-22)", "OBJECT_ID": "2012-011A", "EPOCH": "2025-12-13T22:21:09.404640", "MEAN_MOTION": 1.00271265, "ECCENTRICITY": 0.00017405, "INCLINATION": 0.0009, "RA_OF_ASC_NODE": 357.1373, "ARG_OF_PERICENTER": 270.3689, "MEAN_ANOMALY": 222.758, "EPHEMERIS_TYPE": 0, "CLASSIFICATION_TYPE": "U", "NORAD_CAT_ID": 38098, "ELEMENT_SET_NO": 999, "REV_AT_EPOCH": 533, "BSTAR": 0, "MEAN_MOTION_DOT": -4.2e-07, "MEAN_MOTION_DDOT": 0}, "tle": {"line1": "1 38098U 12011A   25347.93135885 -.00000042  00000+0  00000+0 0  9991", "line2": "2 38098   0.0009 357.1373 0001740 270.3689 222.7580  1.00271265  5336"}}, "geometry": {"type": "Point", "coordinates": [47.6522247249555, 0.018369121150801693]}}, {"type": "Feature", "properties": {"norad_id": 38356, "name": "INTELSAT 19 (IS-19)", "group": "intelsat", "lat": 0.01605334645806153, "lon": 141.51043453935478, "alt_km": 35795.004315467646, "timestamp": "2025-12-14T16:47:40.350849+00:00", "meta": {"OBJECT_NAME": "INTELSAT 19 (IS-19)", "OBJECT_ID": "2012-030A", "EPOCH": "2025-12-13T21:05:16.674144", "MEAN_MOTION": 1.00272679, "ECCENTRICITY": 0.0003354, "INCLINATION": 0.0111, "RA_OF_ASC_NODE": 14.4317, "ARG_OF_PERICENTER": 257.5342, "MEAN_ANOMALY": 293.1729, "EPHEMERIS_TYPE": 0, "CLASSIFICATION_TYPE": "U", "NORAD_CAT_ID": 38356, "ELEMENT_SET_NO": 999, "REV_AT_EPOCH": 4859, "BSTAR": 0, "MEAN_MOTION_DOT": -4e-07, "MEAN_MOTION_DDOT": 0}, "tle": {"line1": "1 38356U 12030A   25347.87866521 -.00000040  00000+0  00000+0 0  9998", "line2": "2 38356   0.0111  14.4317 0003354 257.5342 293.1729  1.00272679 48596"}}, "geometry": {"type": "Point", "coordinates": [141.51043453935478, 0.01605334645806153]}}, {"type": "Feature", "properties": {"norad_id": 38740, "name": "INTELSAT 20 (IS-20)", "group": "intelsat", "lat": 0.010807795962878302, "lon": 43.99963554487632, "alt_km": 35796.94685001899, "timestamp": "2025-12-14T16:47:40.350861+00:00", "meta": {"OBJECT_NAME": "INTELSAT 20 (IS-20)", "OBJECT_ID": "2012-043A", "EPOCH": "2025-12-13T22:20:09.500928", "MEAN_MOTION": 1.00270541, "ECCENTRICITY": 0.00033412, "INCLINATION": 0.0037, "RA_OF_ASC_NODE": 35.2383, "ARG_OF_PERICENTER": 147.3089, "MEAN_ANOMALY": 303.854, "EPHEMERIS_TYPE": 0, "CLASSIFICATION_TYPE": "U", "NORAD_CAT_ID": 38740, "ELEMENT_SET_NO": 999, "REV_AT_EPOCH": 4889, "BSTAR": 0, "MEAN_MOTION_DOT": -8e-08, "MEAN_MOTION_DDOT": 0}, "tle": {"line1": "1 38740U 12043A   25347.93066552 -.00000008  00000+0  00000+0 0  9996", "line2": "2 38740   0.0037  35.2383 0003341 147.3089 303.8540  1.00270541 48893"}}, "geometry": {"type": "Point", "coordinates": [43.99963554487632, 0.010807795962878302]}}, {"type": "Feature", "properties": {"norad_id": 38749, "name": "INTELSAT 21 (IS-21)", "group": "intelsat", "lat": -0.025191294851926397, "lon": -82.46652211194552, "alt_km": 35779.005444195056, "timestamp": "2025-12-14T16:47:40.350873+00:00", "meta": {"OBJECT_NAME": "INTELSAT 21 (IS-21)", "OBJECT_ID": "2012-045A", "EPOCH": "2025-12-13T21:44:05.455680", "MEAN_MOTION": 1.00272012, "ECCENTRICITY": 0.00017516, "INCLINATION": 0.0301, "RA_OF_ASC_NODE": 74.5963, "ARG_OF_PERICENTER": 186.3533, "MEAN_ANOMALY": 89.9094, "EPHEMERIS_TYPE": 0, "CLASSIFICATION_TYPE": "U", "NORAD_CAT_ID": 38749, "ELEMENT_SET_NO": 999, "REV_AT_EPOCH": 4866, "BSTAR": 0, "MEAN_MOTION_DOT": -2.68e-06, "MEAN_MOTION_DDOT": 0}, "tle": {"line1": "1 38749U 12045A   25347.90561870 -.00000268  00000+0  00000+0 0  9995", "line2": "2 38749   0.0301  74.5963 0001751 186.3533  89.9094  1.00272012 48662"}}, "geometry": {"type": "Point", "coordinates": [-82.46652211194552, -0.025191294851926397]}}, {"type": "Feature", "properties": {"norad_id": 38867, "name": "INTELSAT 23 (IS-23)", "group": "intelsat", "lat": -0.02351278413070008, "lon": -77.47463412804369, "alt_km": 35783.837981690835, "timestamp": "2025-12-14T16:47:40.350884+00:00", "meta": {"OBJECT_NAME": "INTELSAT 23 (IS-23)", "OBJECT_ID": "2012-057A", "EPOCH": "2025-12-13T21:45:27.824256", "MEAN_MOTION": 1.0026998, "ECCENTRICITY": 0.00010307, "INCLINATION": 0.0432, "RA_OF_ASC_NODE": 97.7751, "ARG_OF_PERICENTER": 135.2793, "MEAN_ANOMALY": 123.1432, "EPHEMERIS_TYPE": 0, "CLASSIFICATION_TYPE": "U", "NORAD_CAT_ID": 38867, "ELEMENT_SET_NO": 999, "REV_AT_EPOCH": 4809, "BSTAR": 0, "MEAN_MOTION_DOT": -2.68e-06, "MEAN_MOTION_DDOT": 0}, "tle": {"line1": "1 38867U 12057A   25347.90657204 -.00000268  00000+0  00000+0 0  9996", "line2": "2 38867   0.0432  97.7751 0001030 135.2793 123.1432  1.00269980 48095"}}, "geometry": {"type": "Point", "coordinates": [-77.47463412804369, -0.02351278413070008]}}, {"type": "Feature", "properties": {"norad_id": 39360, "name": "FM-6", "group": "intelsat", "lat": -0.007251074019628056, "lon": -140.5983289698894, "alt_km": 35776.67194591584, "timestamp": "2025-12-14T16:47:40.350896+00:00", "meta": {"OBJECT_NAME": "FM-6", "OBJECT_ID": "2013-058A", "EPOCH": "2025-12-13T23:10:12.207648", "MEAN_MOTION": 1.00271098, "ECCENTRICITY": 0.00030473, "INCLINATION": 0.0084, "RA_OF_ASC_NODE": 59.3397, "ARG_OF_PERICENTER": 118.3918, "MEAN_ANOMALY": 136.5674, "EPHEMERIS_TYPE": 0, "CLASSIFICATION_TYPE": "U", "NORAD_CAT_ID": 39360, "ELEMENT_SET_NO": 999, "REV_AT_EPOCH": 4421, "BSTAR": 0, "MEAN_MOTION_DOT": 0, "MEAN_MOTION_DDOT": 0}, "tle": {"line1": "1 39360U 13058A   25347.96541907  .00000000  00000+0  00000+0 0  9998", "line2": "2 39360   0.0084  59.3397 0003047 118.3918 136.5674  1.00271098 44217"}}, "geometry": {"type": "Point", "coordinates": [-140.5983289698894, -0.007251074019628056]}}, {"type": "Feature", "properties": {"norad_id": 40271, "name": "INTELSAT 30 (IS-30)", "group": "intelsat", "lat": -0.025284140353733057, "lon": -119.53168513136087, "alt_km": 35791.57809429061, "timestamp": "2025-12-14T16:47:40.350907+00:00", "meta": {"OBJECT_NAME": "INTELSAT 30 (IS-30)", "OBJECT_ID": "2014-062A", "EPOCH": "2025-12-13T21:33:28.971936", "MEAN_MOTION": 1.00270092, "ECCENTRICITY": 0.00013907, "INCLINATION": 0.0158, "RA_OF_ASC_NODE": 24.7661, "ARG_OF_PERICENTER": 67.8446, "MEAN_ANOMALY": 218.5264, "EPHEMERIS_TYPE": 0, "CLASSIFICATION_TYPE": "U", "NORAD_CAT_ID": 40271, "ELEMENT_SET_NO": 999, "REV_AT_EPOCH": 492, "BSTAR": 0, "MEAN_MOTION_DOT": -1.34e-06, "MEAN_MOTION_DDOT": 0}, "tle": {"line1": "1 40271U 14062A   25347.89825199 -.00000134  00000+0  00000+0 0  9996", "line2": "2 40271   0.0158  24.7661 0001390  67.8446 218.5264  1.00270092  4928"}}, "geometry": {"type": "Point", "coordinates": [-119.53168513136087, -0.025284140353733057]}}, {"type": "Feature", "properties": {"norad_id": 40333, "name": "DIRECTV 14", "group": "intelsat", "lat": -0.04068509643518729, "lon": -123.7047859173536, "alt_km": 35786.4448538891, "timestamp": "2025-12-14T16:47:40.350919+00:00", "meta": {"OBJECT_NAME": "DIRECTV 14", "OBJECT_ID": "2014-078B", "EPOCH": "2025-12-13T21:32:14.091648", "MEAN_MOTION": 1.00270154, "ECCENTRICITY": 2.647e-05, "INCLINATION": 0.0202, "RA_OF_ASC_NODE": 333.1768, "ARG_OF_PERICENTER": 179.3801, "MEAN_ANOMALY": 154.0996, "EPHEMERIS_TYPE": 0, "CLASSIFICATION_TYPE": "U", "NORAD_CAT_ID": 40333, "ELEMENT_SET_NO": 999, "REV_AT_EPOCH": 4018, "BSTAR": 0, "MEAN_MOTION_DOT": -1.09e-06, "MEAN_MOTION_DDOT": 0}, "tle": {"line1": "1 40333U 14078B   25347.89738532 -.00000109  00000+0  00000+0 0  9998", "line2": "2 40333   0.0202 333.1768 0000264 179.3801 154.0996  1.00270154 40188"}}, "geometry": {"type": "Point", "coordinates": [-123.7047859173536, -0.04068509643518729]}}, {"type": "Feature", "properties": {"norad_id": 40663, "name": "DIRECTV 15", "group": "intelsat", "lat": -0.0033016138011605083, "lon": -127.34377871753824, "alt_km": 35785.734862908386, "timestamp": "2025-12-14T16:47:40.350930+00:00", "meta": {"OBJECT_NAME": "DIRECTV 15", "OBJECT_ID": "2015-026A", "EPOCH": "2025-12-13T21:31:14.187072", "MEAN_MOTION": 1.00270171, "ECCENTRICITY": 2.264e-05, "INCLINATION": 0.0394, "RA_OF_ASC_NODE": 85.7239, "ARG_OF_PERICENTER": 114.937, "MEAN_ANOMALY": 102.1077, "EPHEMERIS_TYPE": 0, "CLASSIFICATION_TYPE": "U", "NORAD_CAT_ID": 40663, "ELEMENT_SET_NO": 999, "REV_AT_EPOCH": 3860, "BSTAR": 0, "MEAN_MOTION_DOT": -8.6e-07, "MEAN_MOTION_DDOT": 0}, "tle": {"line1": "1 40663U 15026A   25347.89669198 -.00000086  00000+0  00000+0 0  9993", "line2": "2 40663   0.0394  85.7239 0000226 114.9370 102.1077  1.00270171 38600"}}, "geometry": {"type": "Point", "coordinates": [-127.34377871753824, -0.0033016138011605083]}}]}